OBJECT_NAME,OBJECT_ID,EPOCH,MEAN_MOTION,ECCENTRICITY,INCLINATION,RA_OF_ASC_NODE,ARG_OF_PERICENTER,MEAN_ANOMALY,EPHEMERIS_TYPE,CLASSIFICATION_TYPE,NORAD_CAT_ID,ELEMENT_SET_NO,REV_AT_EPOCH,BSTAR,MEAN_MOTION_DOT,MEAN_MOTION_DDOT
TANSAT,2016-081A,2026-06-13T23:00:38.541888,14.59948521,.00197484,98.5359,165.1206,322.6657,37.3169,0,U,41898,999,50415,.69995893E-4,.286E-5,0
JILIN-1 03,2017-002B,2026-06-13T21:50:27.246048,15.41504145,.00063963,97.1941,172.0406,164.3538,195.7908,0,U,41914,999,52135,.31905326E-3,.1331E-3,0
CARTOSAT-2D,2017-008A,2026-06-13T22:20:54.218112,15.19308810,.0003649,97.4115,224.2975,243.4453,116.6408,0,U,41948,999,51708,.14297752E-3,.2951E-4,0
CARTOSAT-2E,2017-036C,2026-06-13T22:46:27.766272,15.19231811,.00027109,97.4284,224.8044,337.6184,22.4932,0,U,42767,999,49765,.20354478E-3,.422E-4,0
D-SAT,2017-036AF,2026-06-13T20:46:21.043776,15.17006621,.00820832,97.5551,143.7896,171.9407,188.3167,0,U,42794,999,49035,.26629786E-3,.5667E-4,0
IRIDIUM 113,2017-039A,2026-06-13T21:23:43.215360,14.34217726,.0002289,86.3967,323.5567,89.2613,270.8845,0,U,42803,999,47071,.3380541E-5,.29E-6,0
NORSAT 2,2017-042D,2026-06-13T17:45:52.460928,15.21867230,.00107098,97.4029,338.2359,68.0511,292.1863,0,U,42828,999,48721,.46397749E-3,.10505E-3,0
TECHNOSAT,2017-042E,2026-06-13T22:11:43.166688,15.04939694,.00187966,97.4269,322.7067,104.4901,255.8413,0,U,42829,999,48621,.29267066E-3,.4103E-4,0
FLYING LAPTOP,2017-042G,2026-06-13T22:03:45.493056,15.01129459,.00194594,97.4665,320.5786,132.3226,227.9651,0,U,42831,999,48596,.41949675E-3,.5338E-4,0
WNISAT 1R,2017-042L,2026-06-13T21:26:51.131904,15.01750372,.00107591,97.4829,321.1336,158.1458,202.0228,0,U,42835,999,48601,.18592147E-3,.2365E-4,0
LEMUR-2-GREENBERG,2017-042N,2026-06-13T18:06:13.813920,15.31231630,.00088577,97.3810,345.3955,26.1376,334.0310,0,U,42837,999,48786,.553821E-3,.16667E-3,0
LEMUR-2-FURIAUS,2017-042R,2026-06-13T17:53:48.287328,15.30148660,.00083437,97.3762,343.3502,79.5870,280.6311,0,U,42840,999,48768,.60424512E-3,.17591E-3,0
CORVUS BC2,2017-042X,2026-06-13T09:47:58.809120,15.06270804,.00141866,97.4051,325.9054,122.2810,237.9794,0,U,42846,999,48649,.25381228E-3,.3675E-4,0
CORVUS BC1,2017-042Y,2026-06-13T22:26:02.178816,15.06445971,.00131889,97.4086,327.2230,99.1673,261.1047,0,U,42847,999,48660,.27618261E-3,.4022E-4,0
VRSS-2,2017-060A,2026-06-13T22:40:03.330336,14.81191119,.00185381,97.6519,202.8172,108.4966,251.8264,0,U,42954,999,46797,.17353365E-3,.1304E-4,0
MOHAMMED VI-A,2017-070A,2026-06-13T23:01:20.014752,14.77065077,.00013999,97.9564,237.3346,73.2402,286.8962,0,U,43005,999,46350,.98788448E-4,.646E-5,0
FENGYUN 3D,2017-072A,2026-06-13T21:43:56.806176,14.19739544,.00025692,99.0117,139.2680,67.6319,292.5128,0,U,43010,999,44452,.12577783E-3,.22E-5,0
CZ-4C R/B,2017-072C,2026-06-13T21:15:29.286432,14.58779685,.01228633,98.5791,272.7774,161.5727,198.9981,0,U,43012,999,45615,.10830738E-3,.505E-5,0
NOAA 20 (JPSS-1),2017-073A,2026-06-13T21:35:54.200832,14.19511149,.00002873,98.7773,104.3917,70.7854,289.3353,0,U,43013,999,44400,.3183327E-4,.23E-6,0
MAKERSAT 0,2017-073D,2026-06-13T21:56:29.925600,15.31998671,.0105274,97.4636,47.4083,284.8512,74.1088,0,U,43016,999,46596,.51446721E-3,.18871E-3,0
RADFXSAT (FOX-1B),2017-073E,2026-06-13T21:36:51.114240,15.12671807,.01500687,97.4712,32.1832,340.6699,18.8875,0,U,43017,999,46489,.40162402E-3,.9197E-4,0
JILIN-1 04,2017-074A,2026-06-13T21:46:30.567936,15.42369294,.00038682,97.4859,274.4322,189.6004,170.5170,0,U,43022,999,47376,.33490997E-3,.14375E-3,0
JILIN-1 05,2017-074B,2026-06-13T22:11:21.410304,15.33829331,.00040929,97.4866,271.0344,227.7321,132.3575,0,U,43023,999,47350,.26147302E-3,.8476E-4,0
JILIN-1 06,2017-074C,2026-06-13T21:29:53.520576,15.33659493,.00054722,97.4792,268.0190,244.7317,115.3359,0,U,43024,999,47333,.18499338E-3,.5941E-4,0
IRIDIUM 116,2017-083C,2026-06-13T22:27:39.120480,14.34217955,.00019176,86.3960,323.3609,97.1559,262.9855,0,U,43072,999,44370,.13866688E-4,.59E-6,0
IRIDIUM 130,2017-083D,2026-06-13T21:41:59.119008,14.34217217,.00018285,86.3966,323.6493,90.5684,269.5722,0,U,43073,999,44364,-.17587055E-4,-.29E-6,0
LKW-2,2017-084A,2026-06-13T22:43:58.968192,15.26299441,.00007009,97.1197,204.8935,179.6389,180.4851,0,U,43080,999,47119,.1920109E-3,.4913E-4,0
SUPERVIEW-1 03,2018-002A,2026-06-13T23:31:31.636992,15.39160608,.00469746,97.3140,249.8223,191.0011,169.0212,0,U,43099,999,46787,.47609316E-3,.1914E-3,0
CARTOSAT-2F,2018-004A,2026-06-13T23:32:40.894368,15.19190972,.00004747,97.4794,224.6467,242.7907,117.3279,0,U,43111,999,46684,.20835743E-3,.4315E-4,0
LKW-3,2018-006A,2026-06-13T22:12:21.669120,15.35191321,.0002373,97.6597,325.3728,338.8363,21.2781,0,U,43146,999,46821,.3426242E-3,.11625E-3,0
