{"_default": { "12": {"norad_id": "43111", "name": "CARTOSAT 2F", "tle1": "1 43111U 18004A   26164.98102887  .00004315  00000-0  20836-3 0  9990", "tle2": "2 43111  97.4794 224.6467 0000475 242.7907 117.3279 15.19190972466842", "object_type": "PAYLOAD", "criticality_score": 9.0, "last_updated": "2026-06-14T08:16:17.656748+00:00", "maneuver_count": 0, "owner": "N/A"}, "44": {"norad_id": "42847", "name": "CORVUS BC1", "tle1": "1 42847U 17042Y   26164.93474744  .00004022  00000-0  27618-3 0  9995", "tle2": "2 42847  97.4086 327.2230 0013189  99.1673 261.1047 15.06445971486604", "object_type": "PAYLOAD", "criticality_score": 9.0, "last_updated": "2026-06-14T08:16:17.656748+00:00", "maneuver_count": 0, "owner": "N/A"}, "45": {"norad_id": "42828", "name": "NORSAT 2", "tle1": "1 42828U 17042D   26164.74019052  .00010505  00000-0  46398-3 0  9999", "tle2": "2 42828  97.4029 338.2359 0010710  68.0511 292.1863 15.21867230487218", "object_type": "PAYLOAD", "criticality_score": 9.0, "last_updated": "2026-06-14T08:16:17.656748+00:00", "maneuver_count": 0, "owner": "N/A"}, "46": {"norad_id": "42767", "name": "CARTOSAT 2E", "tle1": "1 42767U 17036C   26164.94893248  .00004220  00000-0  20354-3 0  9994", "tle2": "2 42767  97.4284 224.8044 0002711 337.6184  22.4932 15.19231811497654", "object_type": "PAYLOAD", "criticality_score": 9.0, "last_updated": "2026-06-14T08:16:17.656748+00:00", "maneuver_count": 0, "owner": "N/A"}, "80": {"norad_id": "43017", "name": "AO-91", "tle1": "1 43017U 17073E   26164.90059160  .00009197  00000-0  40162-3 0  9994", "tle2": "2 43017  97.4712  32.1832 0150069 340.6699  18.8875 15.12671807464890", "object_type": "PAYLOAD", "criticality_score": 9.0, "last_updated": "2026-06-14T08:16:17.656748+00:00", "maneuver_count": 0, "owner": "N/A"}, "81": {"norad_id": "43012", "name": "CZ-4C R/B", "tle1": "1 43012U 17072C   26164.88575563  .00000505  00000-0  10831-3 0  9999", "tle2": "2 43012  98.5791 272.7774 0122863 161.5727 198.9981 14.58779685456154", "object_type": "ROCKET_BODY", "criticality_score": 9.0, "last_updated": "2026-06-14T08:16:17.656748+00:00", "maneuver_count": 0, "owner": "N/A"}, "82": {"norad_id": "42829", "name": "TECHNOSAT", "tle1": "1 42829U 17042E   26164.92480517  .00004103  00000-0  29267-3 0  9991", "tle2": "2 42829  97.4269 322.7067 0018797 104.4901 255.8413 15.04939694486211", "object_type": "PAYLOAD", "criticality_score": 9.0, "last_updated": "2026-06-14T08:16:17.656748+00:00", "maneuver_count": 0, "owner": "N/A"}, "83": {"norad_id": "42794", "name": "DSAT", "tle1": "1 42794U 17036AF  26164.86552134  .00005667  00000-0  26630-3 0  9990", "tle2": "2 42794  97.5551 143.7896 0082083 171.9407 188.3167 15.17006621490352", "object_type": "PAYLOAD", "criticality_score": 9.0, "last_updated": "2026-06-14T08:16:17.656748+00:00", "maneuver_count": 0, "owner": "N/A"}, "107": {"norad_id": "42831", "name": "FLYING LAPTOP", "tle1": "1 42831U 17042G   26164.91927654  .00005338  00000-0  41950-3 0  9995", "tle2": "2 42831  97.4665 320.5786 0019459 132.3226 227.9651 15.01129459485966", "object_type": "PAYLOAD", "criticality_score": 9.0, "last_updated": "2026-06-14T08:16:17.656748+00:00", "maneuver_count": 0, "owner": "N/A"}, "108": {"norad_id": "41948", "name": "CARTOSAT 2D", "tle1": "1 41948U 17008A   26164.93118308  .00002951  00000-0  14298-3 0  9998", "tle2": "2 41948  97.4115 224.2975 0003649 243.4453 116.6408 15.19308810517086", "object_type": "PAYLOAD", "criticality_score": 9.0, "last_updated": "2026-06-14T08:16:17.656748+00:00", "maneuver_count": 0, "owner": "N/A"}, "150": {"norad_id": "42846", "name": "CORVUS BC2", "tle1": "1 42846U 17042X   26164.40831955  .00003675  00000-0  25381-3 0  9995", "tle2": "2 42846  97.4051 325.9054 0014187 122.2810 237.9794 15.06270804486492", "object_type": "PAYLOAD", "criticality_score": 9.0, "last_updated": "2026-06-14T08:16:17.656748+00:00", "maneuver_count": 0, "owner": "N/A"}, "180": {"norad_id": "43016", "name": "MAKERSAT 0", "tle1": "1 43016U 17073D   26164.91423525  .00018871  00000-0  51447-3 0  9991", "tle2": "2 43016  97.4636  47.4083 0105274 284.8512  74.1088 15.31998671465964", "object_type": "PAYLOAD", "criticality_score": 9.0, "last_updated": "2026-06-14T08:16:17.656748+00:00", "maneuver_count": 0, "owner": "N/A"}, "189": {"norad_id": "41914", "name": "JILIN-1-03", "tle1": "1 41914U 17002B   26164.91003757  .00013310  00000-0  31905-3 0  9999", "tle2": "2 41914  97.1941 172.0406 0006396 164.3538 195.7908 15.41504145521351", "object_type": "PAYLOAD", "criticality_score": 9.0, "last_updated": "2026-06-14T08:16:17.656748+00:00", "maneuver_count": 0, "owner": "N/A"}, "191": {"norad_id": "43022", "name": "JILIN-01-04", "tle1": "1 43022U 17074A   26164.90729824  .00014375  00000-0  33491-3 0  9993", "tle2": "2 43022  97.4859 274.4322 0003868 189.6004 170.5170 15.42369294473765", "object_type": "PAYLOAD", "criticality_score": 9.0, "last_updated": "2026-06-14T08:16:17.656748+00:00", "maneuver_count": 0, "owner": "N/A"}, "192": {"norad_id": "43023", "name": "JILIN-01-05", "tle1": "1 43023U 17074B   26164.92455336  .00008476  00000-0  26147-3 0  9995", "tle2": "2 43023  97.4866 271.0344 0004093 227.7321 132.3575 15.33829331473508", "object_type": "PAYLOAD", "criticality_score": 9.0, "last_updated": "2026-06-14T08:16:17.656748+00:00", "maneuver_count": 0, "owner": "N/A"}, "193": {"norad_id": "43024", "name": "JILIN-01-06", "tle1": "1 43024U 17074C   26164.89575834  .00005941  00000-0  18499-3 0  9993", "tle2": "2 43024  97.4792 268.0190 0005472 244.7317 115.3359 15.33659493473330", "object_type": "PAYLOAD", "criticality_score": 9.0, "last_updated": "2026-06-14T08:16:17.656748+00:00", "maneuver_count": 0, "owner": "N/A"}, "217": {"norad_id": "43010", "name": "FENGYUN 3D", "tle1": "1 43010U 17072A   26164.90551859  .00000220  00000-0  12578-3 0  9996", "tle2": "2 43010  99.0117 139.2680 0002569  67.6319 292.5128 14.19739544444525", "object_type": "PAYLOAD", "criticality_score": 9.0, "last_updated": "2026-06-14T08:16:17.656748+00:00", "maneuver_count": 0, "owner": "N/A"}, "221": {"norad_id": "43013", "name": "NOAA 20", "tle1": "1 43013U 17073A   26164.89993288  .00000023  00000-0  31833-4 0  9991", "tle2": "2 43013  98.7773 104.3917 0000287  70.7854 289.3353 14.19511149444008", "object_type": "PAYLOAD", "criticality_score": 9.0, "last_updated": "2026-06-14T08:16:17.656748+00:00", "maneuver_count": 0, "owner": "N/A"}, "232": {"norad_id": "42840", "name": "LEMUR 2 FURIAUS", "tle1": "1 42840U 17042R   26164.74569777  .00017591  00000-0  60425-3 0  9996", "tle2": "2 42840  97.3762 343.3502 0008344  79.5870 280.6311 15.30148660487687", "object_type": "PAYLOAD", "criticality_score": 9.0, "last_updated": "2026-06-14T08:16:17.656748+00:00", "maneuver_count": 0, "owner": "N/A"}, "239": {"norad_id": "42835", "name": "WNISAT 1R", "tle1": "1 42835U 17042L   26164.89364736  .00002365  00000-0  18592-3 0  9995", "tle2": "2 42835  97.4829 321.1336 0010759 158.1458 202.0228 15.01750372486012", "object_type": "PAYLOAD", "criticality_score": 9.0, "last_updated": "2026-06-14T08:16:17.656748+00:00", "maneuver_count": 0, "owner": "N/A"}, "293": {"norad_id": "43005", "name": "MOHAMMED VI-A", "tle1": "1 43005U 17070A   26164.95925943  .00000646  00000-0  98788-4 0  9992", "tle2": "2 43005  97.9564 237.3346 0001400  73.2402 286.8962 14.77065077463508", "object_type": "PAYLOAD", "criticality_score": 9.0, "last_updated": "2026-06-14T08:16:17.656748+00:00", "maneuver_count": 0, "owner": "N/A"}, "348": {"norad_id": "43072", "name": "IRIDIUM 116", "tle1": "1 43072U 17083C   26164.93586945  .00000059  00000-0  13867-4 0  9996", "tle2": "2 43072  86.3960 323.3609 0001918  97.1559 262.9855 14.34217955443707", "object_type": "PAYLOAD", "criticality_score": 9.0, "last_updated": "2026-06-14T08:16:17.656748+00:00", "maneuver_count": 0, "owner": "N/A"}, "349": {"norad_id": "42803", "name": "IRIDIUM 113", "tle1": "1 42803U 17039A   26164.89147240  .00000029  00000-0  33805-5 0  9996", "tle2": "2 42803  86.3967 323.5567 0002289  89.2613 270.8845 14.34217726470719", "object_type": "PAYLOAD", "criticality_score": 9.0, "last_updated": "2026-06-14T08:16:17.656748+00:00", "maneuver_count": 0, "owner": "N/A"}, "350": {"norad_id": "43073", "name": "IRIDIUM 130", "tle1": "1 43073U 17083D   26164.90415647 -.00000029  00000-0 -17587-4 0  9996", "tle2": "2 43073  86.3966 323.6493 0001828  90.5684 269.5722 14.34217217443644", "object_type": "PAYLOAD", "criticality_score": 9.0, "last_updated": "2026-06-14T08:16:17.656748+00:00", "maneuver_count": 0, "owner": "N/A"}, "419": {"norad_id": "43099", "name": "SUPERVIEW-1 03", "tle1": "1 43099U 18002A   26164.98022728  .00019140  00000-0  47609-3 0  9997", "tle2": "2 43099  97.3140 249.8223 0046975 191.0011 169.0212 15.39160608467877", "object_type": "PAYLOAD", "criticality_score": 9.0, "last_updated": "2026-06-14T08:16:17.656748+00:00", "maneuver_count": 0, "owner": "N/A"}, "432": {"norad_id": "41898", "name": "TANSAT", "tle1": "1 41898U 16081A   26164.95877942  .00000286  00000-0  69996-4 0  9995", "tle2": "2 41898  98.5359 165.1206 0019748 322.6657  37.3169 14.59948521504154", "object_type": "PAYLOAD", "criticality_score": 9.0, "last_updated": "2026-06-14T08:16:17.656748+00:00", "maneuver_count": 0, "owner": "N/A"}, "437": {"norad_id": "42837", "name": "LEMUR 2 GREENBERG", "tle1": "1 42837U 17042N   26164.75432655  .00016667  00000-0  55382-3 0  9996", "tle2": "2 42837  97.3810 345.3955 0008858  26.1376 334.0310 15.31231630487864", "object_type": "PAYLOAD", "criticality_score": 9.0, "last_updated": "2026-06-14T08:16:17.656748+00:00", "maneuver_count": 0, "owner": "N/A"}, "499": {"norad_id": "43146", "name": "LKW-3", "tle1": "1 43146U 18006A   26164.92525080  .00011625  00000-0  34262-3 0  9998", "tle2": "2 43146  97.6597 325.3728 0002373 338.8363  21.2781 15.35191321468215", "object_type": "PAYLOAD", "criticality_score": 9.0, "last_updated": "2026-06-14T08:16:17.656748+00:00", "maneuver_count": 0, "owner": "N/A"}, "506": {"norad_id": "43080", "name": "LKW-2", "tle1": "1 43080U 17084A   26164.94721028  .00004913  00000-0  19201-3 0  9990", "tle2": "2 43080  97.1197 204.8935 0000701 179.6389 180.4851 15.26299441471195", "object_type": "PAYLOAD", "criticality_score": 9.0, "last_updated": "2026-06-14T08:16:17.656748+00:00", "maneuver_count": 0, "owner": "N/A"}, "527": {"norad_id": "42954", "name": "VRSS-2", "tle1": "1 42954U 17060A   26164.94448299  .00001304  00000-0  17353-3 0  9996", "tle2": "2 42954  97.6519 202.8172 0018538 108.4966 251.8264 14.81191119467971", "object_type": "PAYLOAD", "criticality_score": 9.0, "last_updated": "2026-06-14T08:16:17.656748+00:00", "maneuver_count": 0, "owner": "N/A"}}}